OBJECT_NAME,OBJECT_ID,EPOCH,MEAN_MOTION,ECCENTRICITY,INCLINATION,RA_OF_ASC_NODE,ARG_OF_PERICENTER,MEAN_ANOMALY,EPHEMERIS_TYPE,CLASSIFICATION_TYPE,NORAD_CAT_ID,ELEMENT_SET_NO,REV_AT_EPOCH,BSTAR,MEAN_MOTION_DOT,MEAN_MOTION_DDOT
STARLINK-37436,2026-123N,2026-06-16T14:00:01.000224,15.80881618,.00011852,53.1582,244.3459,75.4081,48.2121,0,U,69365,999,319,-.27841624E-3,-.55321E-3,0
STARLINK-37581,2026-123P,2026-06-16T14:00:01.000224,15.80894349,.00015374,53.1587,244.3904,73.5186,28.6673,0,U,69366,999,304,-.14101474E-3,-.28469E-3,0
STARLINK-37683,2026-123Q,2026-06-16T14:00:01.000224,15.81160946,.00014533,53.1588,244.3423,80.4855,44.6717,0,U,69367,999,305,-.47342397E-2,-.858816E-2,0
STARLINK-37687,2026-123R,2026-06-16T14:00:01.000224,15.80852301,.00008307,53.1586,244.2931,63.2647,85.7681,0,U,69368,999,305,.73179376E-4,.13754E-3,0
STARLINK-37631,2026-123S,2026-06-16T14:00:01.000224,15.80866855,.00010583,53.1587,244.3023,79.1839,65.3270,0,U,69369,999,310,.3430977E-5,-.22E-6,0
STARLINK-37673,2026-123T,2026-06-16T14:00:01.000224,15.80893664,.0001331,53.1585,244.2971,74.7913,72.1822,0,U,69370,999,310,-.20769715E-3,-.41535E-3,0
STARLINK-37645,2026-123U,2026-06-16T14:00:01.000224,15.80923340,.00010189,53.1587,244.3188,32.8371,103.3898,0,U,69371,999,310,-.31084862E-3,-.61755E-3,0
STARLINK-37688,2026-123V,2026-06-16T14:00:01.000224,15.80914974,.00013237,53.1584,244.2880,85.0674,65.8605,0,U,69372,999,310,-.30005204E-3,-.59629E-3,0
STARLINK-37685,2026-123W,2026-06-16T14:00:01.000224,15.80916998,.00011495,53.1584,244.2819,70.4470,83.3716,0,U,69373,999,310,-.3415111E-3,-.67713E-3,0
STARLINK-37632,2026-123X,2026-06-16T14:00:01.000224,15.80906634,.00011342,53.1584,244.2731,83.7427,74.2861,0,U,69374,999,305,-.25875355E-3,-.51544E-3,0
STARLINK-37454,2026-123Y,2026-06-16T14:00:01.000224,15.80902999,.00010287,53.1585,244.2599,67.5473,96.7385,0,U,69375,999,319,-.23412523E-3,-.46722E-3,0
STARLINK-37485,2026-123Z,2026-06-16T14:00:01.000224,15.80904026,.0001225,53.1583,244.2512,52.2946,116.1964,0,U,69376,999,319,-.29231366E-3,-.58089E-3,0
STARLINK-37439,2026-123AA,2026-06-16T14:00:01.000224,15.80910644,.00016037,53.1578,244.1667,69.3792,139.6237,0,U,69377,999,305,-.25076457E-3,-.49996E-3,0
STARLINK-37376,2026-123AB,2026-06-16T14:00:01.000224,15.80895757,.00010562,53.1585,244.1966,42.3541,152.1009,0,U,69378,999,319,-.20599399E-3,-.41204E-3,0
STARLINK-37383,2026-123AC,2026-06-16T14:00:01.000224,15.80914965,.00012643,53.1578,244.1239,72.7634,156.3518,0,U,69379,999,319,-.35262032E-3,-.6987E-3,0
STARLINK-37411,2026-123AD,2026-06-16T14:00:01.000224,15.80886241,.00010645,53.1580,244.1821,64.3968,136.8929,0,U,69380,999,319,-.15171284E-3,-.30554E-3,0
STARLINK-37427,2026-123AE,2026-06-16T14:00:01.000224,15.80841764,.00011648,53.1579,244.1333,71.3684,153.3025,0,U,69381,999,310,.22299784E-3,.43472E-3,0
