[
  {
    "name": "STARLINK-37436",
    "noradId": "69365",
    "line1": "1 69365U 26123N   26167.58334491 -.00055321  00000+0 -27842-3 0  9995",
    "line2": "2 69365  53.1582 244.3459 0001185  75.4081  48.2121 15.80881618  3193"
  },
  {
    "name": "STARLINK-37581",
    "noradId": "69366",
    "line1": "1 69366U 26123P   26167.58334491 -.00028469  00000+0 -14101-3 0  9993",
    "line2": "2 69366  53.1587 244.3904 0001537  73.5186  28.6673 15.80894349  3043"
  },
  {
    "name": "STARLINK-37683",
    "noradId": "69367",
    "line1": "1 69367U 26123Q   26167.58334491 -.00858816  00000+0 -47342-2 0  9993",
    "line2": "2 69367  53.1588 244.3423 0001453  80.4855  44.6717 15.81160946  3056"
  },
  {
    "name": "STARLINK-37687",
    "noradId": "69368",
    "line1": "1 69368U 26123R   26167.58334491  .00013754  00000+0  73179-4 0  9995",
    "line2": "2 69368  53.1586 244.2931 0000830  63.2647  85.7681 15.80852301  3052"
  },
  {
    "name": "STARLINK-37631",
    "noradId": "69369",
    "line1": "1 69369U 26123S   26167.58334491 -.00000022  00000+0  34310-5 0  9996",
    "line2": "2 69369  53.1587 244.3023 0001058  79.1839  65.3270 15.80866855  3102"
  },
  {
    "name": "STARLINK-37673",
    "noradId": "69370",
    "line1": "1 69370U 26123T   26167.58334491 -.00041535  00000+0 -20770-3 0  9996",
    "line2": "2 69370  53.1585 244.2971 0001331  74.7913  72.1822 15.80893664  3108"
  },
  {
    "name": "STARLINK-37645",
    "noradId": "69371",
    "line1": "1 69371U 26123U   26167.58334491 -.00061755  00000+0 -31085-3 0  9994",
    "line2": "2 69371  53.1587 244.3188 0001018  32.8371 103.3898 15.80923340  3102"
  },
  {
    "name": "STARLINK-37688",
    "noradId": "69372",
    "line1": "1 69372U 26123V   26167.58334491 -.00059629  00000+0 -30005-3 0  9993",
    "line2": "2 69372  53.1584 244.2880 0001323  85.0674  65.8605 15.80914974  3104"
  },
  {
    "name": "STARLINK-37685",
    "noradId": "69373",
    "line1": "1 69373U 26123W   26167.58334491 -.00067713  00000+0 -34151-3 0  9993",
    "line2": "2 69373  53.1584 244.2819 0001149  70.4470  83.3716 15.80916998  3101"
  },
  {
    "name": "STARLINK-37632",
    "noradId": "69374",
    "line1": "1 69374U 26123X   26167.58334491 -.00051544  00000+0 -25875-3 0  9992",
    "line2": "2 69374  53.1584 244.2731 0001134  83.7427  74.2861 15.80906634  3058"
  },
  {
    "name": "STARLINK-37454",
    "noradId": "69375",
    "line1": "1 69375U 26123Y   26167.58334491 -.00046722  00000+0 -23413-3 0  9991",
    "line2": "2 69375  53.1585 244.2599 0001028  67.5473  96.7385 15.80902999  3190"
  },
  {
    "name": "STARLINK-37485",
    "noradId": "69376",
    "line1": "1 69376U 26123Z   26167.58334491 -.00058089  00000+0 -29231-3 0  9995",
    "line2": "2 69376  53.1583 244.2512 0001225  52.2946 116.1964 15.80904026  3192"
  },
  {
    "name": "STARLINK-37439",
    "noradId": "69377",
    "line1": "1 69377U 26123AA  26167.58334491 -.00049996  00000+0 -25076-3 0  9996",
    "line2": "2 69377  53.1578 244.1667 0001603  69.3792 139.6237 15.80910644  3056"
  },
  {
    "name": "STARLINK-37376",
    "noradId": "69378",
    "line1": "1 69378U 26123AB  26167.58334491 -.00041204  00000+0 -20599-3 0  9996",
    "line2": "2 69378  53.1585 244.1966 0001056  42.3541 152.1009 15.80895757  3191"
  },
  {
    "name": "STARLINK-37383",
    "noradId": "69379",
    "line1": "1 69379U 26123AC  26167.58334491 -.00069870  00000+0 -35262-3 0  9999",
    "line2": "2 69379  53.1578 244.1239 0001264  72.7634 156.3518 15.80914965  3192"
  },
  {
    "name": "STARLINK-37411",
    "noradId": "69380",
    "line1": "1 69380U 26123AD  26167.58334491 -.00030554  00000+0 -15171-3 0  9995",
    "line2": "2 69380  53.1580 244.1821 0001064  64.3968 136.8929 15.80886241  3193"
  },
  {
    "name": "STARLINK-37427",
    "noradId": "69381",
    "line1": "1 69381U 26123AE  26167.58334491  .00043472  00000+0  22300-3 0  9999",
    "line2": "2 69381  53.1579 244.1333 0001164  71.3684 153.3025 15.80841764  3107"
  }
]